CSS (TIANHE)            
1 48274U 21035A   24266.28047643  .00045471  00000+0  50142-3 0  9995
2 48274  41.4674 211.0975 0005745 357.4867   2.5942 15.62267905194288
